NORAD_CAT_ID,OBJECT_NAME,OBJECT_TYPE,EPOCH,MEAN_MOTION,ECCENTRICITY,INCLINATION,RA_OF_ASC_NODE,ARG_OF_PERICENTER,MEAN_ANOMALY,BSTAR,MEAN_MOTION_DOT,MEAN_MOTION_DDOT,TLE_LINE0,TLE_LINE1,TLE_LINE2,SEMIMAJOR_AXIS,PERIOD,APOGEE,PERIGEE,DECAYED
52301.0,STARLINK-3768,PAYLOAD,2024-07-20 04:34:28,15.08834735,0.0001517,53.2164,261.4015,88.4866,271.63,0.00014026,1.945e-05,0.0,0 STARLINK-3768,1 52301U 22041AS  24202.19060820  .00001945  00000-0  14026-3 0  9991,2 52301  53.2164 261.4015 0001517  88.4866 271.6300 15.08834735125514,6917.896,95.438,540.811,538.712,0.0
52301.0,STARLINK-3768,PAYLOAD,2024-07-20 10:56:01,15.08833019,0.0001489,53.2161,260.2119,88.016,272.1003,9.4126e-05,1.21e-05,0.0,0 STARLINK-3768,1 52301U 22041AS  24202.45557005  .00001210  00000-0  94126-4 0  9991,2 52301  53.2161 260.2119 0001489  88.0160 272.1003 15.08833019124344,6917.902,95.438,540.797,538.737,0.0
52301.0,STARLINK-3768,PAYLOAD,2024-07-20 20:28:19,15.0884584,0.0001365,53.2155,258.4264,83.5763,276.5385,0.00017648,2.522e-05,0.0,0 STARLINK-3768,1 52301U 22041AS  24202.85300346  .00002522  00000-0  17648-3 0  9999,2 52301  53.2155 258.4264 0001365  83.5763 276.5385 15.08845840125616,6917.863,95.437,540.672,538.783,0.0
52301.0,STARLINK-3768,PAYLOAD,2024-07-21 04:25:15,15.0883509,0.0001548,53.2173,256.9486,103.0256,257.0909,0.00011176,1.491e-05,0.0,0 STARLINK-3768,1 52301U 22041AS  24203.18421097  .00001491  00000-0  11176-3 0  9997,2 52301  53.2173 256.9486 0001548 103.0256 257.0909 15.08835090125660,6917.895,95.438,540.831,538.69,0.0
52301.0,STARLINK-3768,PAYLOAD,2024-07-21 10:46:48,15.0883356,0.0001454,53.2174,255.759,99.7472,260.3684,0.00012817,1.752e-05,0.0,0 STARLINK-3768,1 52301U 22041AS  24203.44917292  .00001752  00000-0  12817-3 0  9996,2 52301  53.2174 255.7590 0001454  99.7472 260.3684 15.08833560124498,6917.9,95.438,540.771,538.759,0.0
52301.0,STARLINK-3768,PAYLOAD,2024-07-22 12:12:58,15.08839599,0.0001533,53.2164,250.9935,86.6303,273.4864,0.00013619,1.88e-05,0.0,0 STARLINK-3768,1 52301U 22041AS  24204.50901134  .00001880  00000-0  13619-3 0  9995,2 52301  53.2164 250.9935 0001533  86.6303 273.4864 15.08839599125868,6917.882,95.438,540.807,538.686,0.0
52301.0,STARLINK-3768,PAYLOAD,2024-07-23 10:28:22,15.08845023,0.0001439,53.2144,246.8294,89.92,270.1957,0.00014121,1.96e-05,0.0,0 STARLINK-3768,1 52301U 22041AS  24205.43636693  .00001960  00000-0  14121-3 0  9991,2 52301  53.2144 246.8294 0001439  89.9200 270.1957 15.08845023124792,6917.865,95.437,540.726,538.735,0.0
52301.0,STARLINK-3768,PAYLOAD,2024-07-24 11:54:31,15.088541,0.0001389,53.2153,242.0707,91.8656,268.2495,0.00016,2.26e-05,0.0,0 STARLINK-3768,1 52301U 22041AS  24206.49619735  .00002260  00000-0  16000-3 0  9998,2 52301  53.2153 242.0707 0001389  91.8656 268.2495 15.08854100126164,6917.837,95.437,540.663,538.741,0.0
52301.0,STARLINK-3768,PAYLOAD,2024-07-25 02:12:59,15.08846512,0.000141,53.215,239.3941,90.4429,269.6725,7.1779e-05,8.55e-06,0.0,0 STARLINK-3768,1 52301U 22041AS  24207.09236111  .00000855  00000-0  71779-4 0  9991,2 52301  53.2150 239.3941 0001410  90.4429 269.6725 15.08846512126257,6917.86,95.437,540.701,538.75,0.0
52301.0,STARLINK-3768,PAYLOAD,2024-07-25 06:59:09,15.08841845,0.0001346,53.2148,238.5,97.4841,262.6304,-1.4249e-06,-3.11e-06,0.0,0 STARLINK-3768,1 52301U 22041AS  24207.29108459 -.00000311  00000-0 -14249-5 0  9995,2 52301  53.2148 238.5000 0001346  97.4841 262.6304 15.08841845125073,6917.875,95.437,540.671,538.809,0.0
52301.0,STARLINK-3768,PAYLOAD,2024-07-25 08:34:32,15.08840145,0.0001321,53.2151,238.2031,97.5659,262.5484,-2.1954e-05,-6.37e-06,0.0,0 STARLINK-3768,1 52301U 22041AS  24207.35732569 -.00000637  00000-0 -21954-4 0  9998,2 52301  53.2151 238.2031 0001321  97.5659 262.5484 15.08840145126294,6917.88,95.438,540.659,538.831,0.0
52301.0,STARLINK-3768,PAYLOAD,2024-07-26 08:25:19,15.088395,0.0001426,53.2157,233.7424,94.572,265.5435,-3.8746e-05,-9.05e-06,0.0,0 STARLINK-3768,1 52301U 22041AS  24208.35092590 -.00000905  00000-0 -38746-4 0  9997,2 52301  53.2157 233.7424 0001426  94.5720 265.5435 15.08839500125233,6917.882,95.438,540.733,538.76,0.0
52301.0,STARLINK-3768,PAYLOAD,2024-07-27 05:05:21,15.08829488,0.000138,53.2153,229.879,91.5728,268.5422,7.575e-05,9.18e-06,0.0,0 STARLINK-3768,1 52301U 22041AS  24209.21205048  .00000918  00000-0  75750-4 0  9995,2 52301  53.2153 229.8790 0001380  91.5728 268.5422 15.08829488126576,6917.913,95.438,540.732,538.823,0.0
52301.0,STARLINK-3768,PAYLOAD,2024-07-27 06:40:44,15.08828751,0.0001374,53.2154,229.5815,92.0536,268.0613,6.6154e-05,7.65e-06,0.0,0 STARLINK-3768,1 52301U 22041AS  24209.27829166  .00000765  00000-0  66154-4 0  9992,2 52301  53.2154 229.5815 0001374  92.0536 268.0613 15.08828751125374,6917.915,95.438,540.73,538.829,0.0
52301.0,STARLINK-3768,PAYLOAD,2024-07-27 17:48:26,15.08829761,0.0001363,53.2153,227.5005,89.921,270.1938,6.006e-05,6.68e-06,0.0,0 STARLINK-3768,1 52301U 22041AS  24209.74197464  .00000668  00000-0  60060-4 0  9995,2 52301  53.2153 227.5005 0001363  89.9210 270.1938 15.08829761125448,6917.912,95.438,540.72,538.834,0.0
52301.0,STARLINK-3768,PAYLOAD,2024-07-28 08:06:54,15.08837049,0.0001303,53.2146,224.8219,84.5785,275.5356,6.6395e-05,7.69e-06,0.0,0 STARLINK-3768,1 52301U 22041AS  24210.33813227  .00000769  00000-0  66395-4 0  9993,2 52301  53.2146 224.8219 0001303  84.5785 275.5356 15.08837049126744,6917.889,95.438,540.656,538.853,0.0
52301.0,STARLINK-3768,PAYLOAD,2024-07-29 11:08:28,15.08837983,0.0001266,53.2145,219.7691,83.6645,276.4491,9.8466e-05,1.279e-05,0.0,0 STARLINK-3768,1 52301U 22041AS  24211.46421409  .00001279  00000-0  98466-4 0  9996,2 52301  53.2145 219.7691 0001266  83.6645 276.4491 15.08837983126919,6917.887,95.438,540.627,538.876,0.0
52301.0,STARLINK-3768,PAYLOAD,2024-07-30 07:48:29,15.08835749,0.0001317,53.2147,215.9033,92.1646,267.9496,1.3162e-05,-7.8e-07,0.0,0 STARLINK-3768,1 52301U 22041AS  24212.32533957 -.00000078  00000-0  13162-4 0  9991,2 52301  53.2147 215.9033 0001317  92.1646 267.9496 15.08835749127045,6917.893,95.438,540.669,538.847,0.0
52301.0,STARLINK-3768,PAYLOAD,2024-07-30 17:20:47,15.08840197,0.0001331,53.2148,214.1191,90.718,269.3965,4.1712e-05,3.76e-06,0.0,0 STARLINK-3768,1 52301U 22041AS  24212.72277656  .00000376  00000-0  41712-4 0  9998,2 52301  53.2148 214.1191 0001331  90.7180 269.3965 15.08840197125896,6917.88,95.438,540.666,538.824,0.0
52301.0,STARLINK-3768,PAYLOAD,2024-07-31 04:28:29,15.08843358,0.0001318,53.2146,212.0372,90.7278,269.3865,9.1328e-05,1.166e-05,0.0,0 STARLINK-3768,1 52301U 22041AS  24213.18645307  .00001166  00000-0  91328-4 0  9997,2 52301  53.2146 212.0372 0001318  90.7278 269.3865 15.08843358127179,6917.87,95.437,540.647,538.823,0.0
52301.0,STARLINK-3768,PAYLOAD,2024-07-31 07:39:15,15.08845438,0.0001383,53.2149,211.4428,89.8397,270.2754,0.00010777,1.428e-05,0.0,0 STARLINK-3768,1 52301U 22041AS  24213.31893146  .00001428  00000-0  10777-3 0  9997,2 52301  53.2149 211.4428 0001383  89.8397 270.2754 15.08845438125986,6917.864,95.437,540.686,538.772,0.0
52301.0,STARLINK-3768,PAYLOAD,2024-07-31 17:11:34,15.08846673,0.0001393,53.2151,209.6584,90.0194,270.0957,0.0001221,1.656e-05,0.0,0 STARLINK-3768,1 52301U 22041AS  24213.71636912  .00001656  00000-0  12210-3 0  9994,2 52301  53.2151 209.6584 0001393  90.0194 270.0957 15.08846673126044,6917.86,95.437,540.689,538.761,0.0
52301.0,STARLINK-3768,PAYLOAD,2024-08-01 05:54:39,15.08840485,0.0001449,53.2154,207.28,90.4773,269.6385,9.9052e-05,1.289e-05,0.0,0 STARLINK-3768,1 52301U 22041AS  24214.24629374  .00001289  00000-0  99052-4 0  9999,2 52301  53.2154 207.2800 0001449  90.4773 269.6385 15.08840485127338,6917.879,95.438,540.746,538.742,0.0
52301.0,STARLINK-3768,PAYLOAD,2024-08-01 09:05:25,15.08844279,0.0001451,53.2152,206.6852,92.1383,267.9776,0.00012837,1.756e-05,0.0,0 STARLINK-3768,1 52301U 22041AS  24214.37877062  .00001756  00000-0  12837-3 0  9996,2 52301  53.2152 206.6852 0001451  92.1383 267.9776 15.08844279126143,6917.867,95.437,540.736,538.729,0.0
52301.0,STARLINK-3768,PAYLOAD,2024-08-02 05:45:26,15.08845254,0.0001528,53.216,202.8151,105.6798,254.4363,3.0461e-05,1.97e-06,0.0,0 STARLINK-3768,1 52301U 22041AS  24215.23988970  .00000197  00000-0  30461-4 0  9995,2 52301  53.2160 202.8151 0001528 105.6798 254.4363 15.08845254126278,6917.864,95.437,540.786,538.672,0.0
52301.0,STARLINK-3768,PAYLOAD,2024-08-03 05:36:13,15.08839555,0.0001396,53.2153,198.3567,97.9992,262.1158,4.0412e-05,3.55e-06,0.0,0 STARLINK-3768,1 52301U 22041AS  24216.23349176  .00000355  00000-0  40412-4 0  9998,2 52301  53.2153 198.3567 0001396  97.9992 262.1158 15.08839555127638,6917.882,95.438,540.712,538.781,0.0
52301.0,STARLINK-3768,PAYLOAD,2024-08-03 08:46:59,15.0884185,0.0001359,53.2152,197.7621,96.7417,263.373,1.5139e-05,-4.7e-07,0.0,0 STARLINK-3768,1 52301U 22041AS  24216.36597083 -.00000047  00000-0  15139-4 0  9991,2 52301  53.2152 197.7621 0001359  96.7417 263.3730 15.08841850126447,6917.875,95.437,540.68,538.8,0.0
52301.0,STARLINK-3768,PAYLOAD,2024-08-04 14:59:19,15.08841348,0.0001304,53.2145,192.1142,93.855,266.2592,8.0943e-05,1.001e-05,0.0,0 STARLINK-3768,1 52301U 22041AS  24217.62453010  .00001001  00000-0  80943-4 0  9997,2 52301  53.2145 192.1142 0001304  93.8550 266.2592 15.08841348126633,6917.876,95.437,540.643,538.839,0.0
52301.0,STARLINK-3768,PAYLOAD,2024-08-04 22:56:15,15.08836148,0.0001753,53.2155,190.6253,92.9901,267.1292,4.4043e-05,4.13e-06,0.0,0 STARLINK-3768,1 52301U 22041AS  24217.95573632  .00000413  00000-0  44043-4 0  9993,2 52301  53.2155 190.6253 0001753  92.9901 267.1292 15.08836148126682,6917.892,95.438,540.97,538.544,0.0
52301.0,STARLINK-3768,PAYLOAD,2024-08-05 05:17:48,15.0883485,0.0001421,53.2162,189.4411,104.9544,255.1606,3.2917e-05,2.36e-06,0.0,0 STARLINK-3768,1 52301U 22041AS  24218.22069863  .00000236  00000-0  32917-4 0  9990,2 52301  53.2162 189.4411 0001421 104.9544 255.1606 15.08834850127934,6917.896,95.438,540.744,538.778,0.0
